{"fetched_at":"2026-05-08T20:58:59Z","count":2296,"tles":[{"name":"OMNI-M1","line1":"1 26857U 01026A   26127.71556171 -.00000018  00000+0  00000+0 0  9996","line2":"2 26857  44.8460 254.5919 0015590  46.1719 313.9791  3.92401530203981","category":"Other"},{"name":"KL-ALPHA A","line1":"1 44785U 19077A   26128.20079551  .00000039  00000+0  38141-4 0  9992","line2":"2 44785  88.9257 226.9332 0009782 216.5785 143.4702 13.56038438320317","category":"Other"},{"name":"FOSSASAT-2E19 (TAT-E)","line1":"1 62676U 25009BV  26128.17651743  .00002279  00000+0  10601-3 0  9996","line2":"2 62676  97.3956 207.1730 0006808 113.7603 246.4348 15.20944316 72613","category":"Other"},{"name":"CORIOLIS","line1":"1 27640U 03001A   26128.03198529  .00000089  00000+0  62641-4 0  9998","line2":"2 27640  98.7139 135.5287 0013406 333.1419  26.9062 14.19933674208526","category":"Other"},{"name":"TOMORROW-R2","line1":"1 56962U 23084AG  26127.95614140  .00149581  00000+0  57601-3 0  9992","line2":"2 56962  97.5936 287.1138 0000820 332.9174  27.2053 15.86937598162647","category":"Other"},{"name":"ORBCOMM FM114","line1":"1 41179U 15081A   26128.18696720  .00000283  00000+0  96184-4 0  9999","line2":"2 41179  47.0038 191.1138 0002018 348.0358  12.0480 14.58814091551919","category":"Other"},{"name":"RANDEV","line1":"1 52898U 22065E   26128.21314731  .00000879  00000+0  17839-3 0  9992","line2":"2 52898  98.2161 272.5854 0008640 143.3001 216.8794 14.63624480205400","category":"Other"},{"name":"IRIDE-MS2-HEO-5","line1":"1 64571U 25135AV  26128.22478571 -.00000946  00000+0 -84941-4 0  9994","line2":"2 64571  97.7679 242.9537 0003864  91.0340 269.1322 14.93338364 47921","category":"Other"},{"name":"SJ-9A","line1":"1 38860U 12056A   26128.21885176  .00001088  00000+0  13174-3 0  9991","line2":"2 38860  97.6687 101.6260 0026449  32.0880 328.1939 14.85387135693651","category":"Other"},{"name":"2023-091C","line1":"1 57168U 23091C   26128.16887672  .00007944  00000+0  31254-3 0  9997","line2":"2 57168  97.5043 190.3248 0010103 242.8062 117.2147 15.25877067158154","category":"Other"},{"name":"SITRO-AIS 17","line1":"1 61789U 24199BG  26128.14464861  .00001872  00000+0  16416-3 0  9997","line2":"2 61789  97.3259 330.2471 0005549 199.6377 160.4633 14.97747774126046","category":"Other"},{"name":"ZACUBE-1 (TSHEPISOSAT)","line1":"1 39417U 13066B   26128.14334387  .00004118  00000+0  32239-3 0  9997","line2":"2 39417  97.8127  90.2641 0042580  27.8491 332.4999 15.00878000674726","category":"Other"},{"name":"JILIN-1 GAOFEN 03D16","line1":"1 51834U 22019L   26094.86293574  .04742356  24575-5  11271-2 0  9993","line2":"2 51834  97.3534 192.0232 0009733 271.1205  88.8974 16.29530138228759","category":"Other"},{"name":"GPM-CORE","line1":"1 39574U 14009C   26128.20736134  .00005699  00000+0  12600-3 0  9997","line2":"2 39574  64.9722  82.1155 0011988 262.5265  97.4513 15.44835420691637","category":"Other"},{"name":"ICEYE-X59","line1":"1 66752U 25276CQ  26128.09063139  .00001808  00000+0  13883-3 0  9990","line2":"2 66752  97.4206 201.1324 0002024 121.4761 238.6663 15.02960906 24254","category":"Other"},{"name":"HAWK-11A","line1":"1 62382U 24247F   26128.08232616  .00004786  00000+0  17293-3 0  9996","line2":"2 62382  44.9916 148.2184 0005155 330.4749  29.5843 15.29799442 76860","category":"Other"},{"name":"2023-072G","line1":"1 56749U 23072G   26128.21527063  .00024667  00000+0  46632-3 0  9998","line2":"2 56749  97.4953 334.5406 0005398 122.5622 237.6150 15.48395206164277","category":"Other"},{"name":"2024-092B","line1":"1 59774U 24092B   26128.23097750  .00008176  00000+0  30195-3 0  9993","line2":"2 59774  97.6436 256.2875 0007984 328.8009  31.2755 15.27991937109435","category":"Other"},{"name":"CBERS 4A","line1":"1 44883U 19093E   26128.17643478  .00000489  00000+0  68650-4 0  9997","line2":"2 44883  97.7507 196.6962 0001386   5.3705 354.7523 14.81641684345151","category":"Other"},{"name":"TIROS N","line1":"1 11060U 78096A   26105.04600833  .00000097  00000+0  65866-4 0  9996","line2":"2 11060  98.4586 128.9461 0011522  68.7099 291.5307 14.19354521669790","category":"Other"},{"name":"CONNECTA IOT-10","line1":"1 64555U 25135AD  26128.00956329  .00002833  00000+0  13410-3 0  9991","line2":"2 64555  97.4637 243.4381 0002514  97.3009 262.8512 15.20166593 48756","category":"Other"},{"name":"STARLINK-31984","line1":"1 60018U 24111C   26127.62047150 -.00000407  00000+0 -16166-5 0  9994","line2":"2 60018  53.1592 162.0674 0001148  87.5636 272.5496 15.30194366107907","category":"Starlink"},{"name":"SITRO-AIS 47","line1":"1 61773U 24199AQ  26128.15996802  .00036880  00000+0  54356-3 0  9998","line2":"2 61773  97.2969   3.3679 0009318  82.0049 278.2262 15.55268877128217","category":"Other"},{"name":"GEOSAT","line1":"1 15595U 85021A   26105.13965804  .00000027  00000+0  51664-4 0  9995","line2":"2 15595 108.0511 310.2307 0001936 253.6732 106.4197 14.39937824153698","category":"Other"},{"name":"GAOFEN-1 03","line1":"1 43260U 18031B   26128.22440376  .00000400  00000+0  64903-4 0  9994","line2":"2 43260  98.0543 190.7194 0002371 170.1168 190.0089 14.76470804436791","category":"Other"},{"name":"ASTROCAST-0201","line1":"1 48954U 21059CD  26041.49206587  .00599618  18965-3  66123-3 0  9992","line2":"2 48954  97.6299 238.3377 0005790 246.8019 113.2654 16.09655773258701","category":"Other"},{"name":"YAM-8","line1":"1 63254U 25052AW  26128.18869508  .00004037  00000+0  24191-3 0  9991","line2":"2 63254  97.6971  29.3928 0002497  33.1130 327.0256 15.11564029 63229","category":"Other"},{"name":"O/OREOS (USA 219)","line1":"1 37224U 10062C   26128.21280847  .00001523  00000+0  15006-3 0  9993","line2":"2 37224  71.9690 170.8750 0013359 149.7054 210.4892 14.93580287110679","category":"Military"},{"name":"NETSAT-1","line1":"1 46506U 20068W   26128.21747645  .00010555  00000+0  32651-3 0  9997","line2":"2 46506  97.8760 126.3502 0006452 134.2535 225.9236 15.33678766309170","category":"Other"},{"name":"SECOR 13 (EGRS 13)","line1":"1 03891U 69037B   26105.15459468 -.00000017  00000+0  43450-4 0  9990","line2":"2 03891  99.6585 339.3510 0040116  46.9388  72.5297 13.42974430793298","category":"Other"},{"name":"2025-197B","line1":"1 65489U 25197B   26127.78069309  .00001797  00000+0  84265-4 0  9998","line2":"2 65489  97.4000 314.8106 0012166 156.1919 203.9882 15.20891425 37149","category":"Other"},{"name":"KSM1-D","line1":"1 46907U 20081C   26127.94593275  .00006072  00000+0  24737-3 0  9999","line2":"2 46907  36.8971 315.4984 0005204 278.3912  81.6246 15.24172962302954","category":"Other"},{"name":"SPOT 5","line1":"1 27421U 02021A   26105.09841203  .00000288  00000+0  69888-4 0  9992","line2":"2 27421  97.9917 146.7405 0131001 112.5220 248.9906 14.54698613253674","category":"Other"},{"name":"QAEM 100 R/B","line1":"1 58818U 24015B   24050.31750225  .00000584  00000+0  20458-3 0  9996","line2":"2 58818  64.5040  25.2965 0012806 292.7438  67.2294 14.43323881  4340","category":"Other"},{"name":"2023-081W","line1":"1 56866U 23081W   26128.17376792  .00006264  00000+0  25747-3 0  9991","line2":"2 56866  97.2913 192.7605 0011989 146.9307 213.2683 15.24457509161939","category":"Other"},{"name":"AIST-2T 1","line1":"1 67253U 25313F   26127.72634617  .00017275  00000+0  20972-3 0  9995","line2":"2 67253  97.0834 205.3685 0004578 354.3403   5.7802 15.60650137 20313","category":"Other"},{"name":"CONNECTA IOT-6","line1":"1 62709U 25009DE  26128.14782693  .00000875  00000+0  87039-4 0  9999","line2":"2 62709  97.7028 207.2793 0000156 192.4660 167.6556 14.94127626 71386","category":"Other"},{"name":"CUTE-1 (CO-55)","line1":"1 27844U 03031E   26127.92520697  .00000248  00000+0  12641-3 0  9990","line2":"2 27844  98.6748 136.9893 0008523 307.2179  52.8222 14.24310603185947","category":"Other"},{"name":"TIANQI-25","line1":"1 59909U 24102A   26128.18257237 -.00000013  00000+0  79361-4 0  9999","line2":"2 59909  44.9767  79.9563 0010564  43.1777 316.9882 13.99155505 99306","category":"Other"},{"name":"ARCSTONE","line1":"1 64540U 25135N   26127.87896338  .00014244  00000+0  47308-3 0  9994","line2":"2 64540  97.4570 245.1051 0002073 347.2844  12.8344 15.31319372 48868","category":"Other"},{"name":"VRSS-1","line1":"1 38782U 12052A   26128.19300559  .00000898  00000+0  12507-3 0  9991","line2":"2 38782  97.6141 106.5808 0018330  12.8508 347.3168 14.79945890733691","category":"Other"},{"name":"SITRO-AIS 42","line1":"1 61756U 24199X   26128.21199013  .00061248  00000+0  66195-3 0  9995","line2":"2 61756  97.2962   6.1458 0006864  76.0593 284.1429 15.63401384131549","category":"Other"},{"name":"COSMOS 2583","line1":"1 62904U 25026C   26127.66029177  .00001415  00000+0  12749-3 0  9998","line2":"2 62904  81.9932 115.8470 0009807 180.6726 179.4483 14.94916164 68145","category":"Other"},{"name":"HORUS 2","line1":"1 55844U 23032A   26128.18692328  .00004608  00000+0  19682-3 0  9990","line2":"2 55844  97.3537 204.3866 0002173 156.3256 203.8081 15.23359645175392","category":"Other"},{"name":"SITRO-AIS 9 (SHCHUKIN)","line1":"1 57201U 23091AM  26128.18052420  .00015511  00000+0  43469-3 0  9992","line2":"2 57201  97.5092 197.5721 0006776 203.6147 156.4787 15.36677215158601","category":"Other"},{"name":"2024-128A","line1":"1 60235U 24128A   24221.62612228  .00004883  00000+0  45897-3 0  9991","line2":"2 60235  61.9964  58.9755 0016772 278.6318  81.2869 14.95122420  4457","category":"Other"},{"name":"SEDNA-1","line1":"1 60580U 24149DS  26128.16261065  .00006017  00000+0  41086-3 0  9990","line2":"2 60580  97.6631 208.8267 0010421 122.8496 237.3736 15.06511424 94368","category":"Other"},{"name":"KINEIS-4A","line1":"1 63303U 25056D   26128.20317941  .00001773  00000+0  28792-3 0  9997","line2":"2 63303  97.9057 253.3303 0002843  75.8296 284.3227 14.72329928 61245","category":"Other"},{"name":"TYVAK-0172","line1":"1 46267U 20059C   26096.83989391  .14522265  28127-5  16295-2 0  9991","line2":"2 46267  97.7022 342.8884 0008021 227.6701 132.3917 16.37067353307587","category":"Other"}]}